C/2019 JU6 (ATLAS),h,06/02.7521/2019,148.3175,21.7331,94.8673,1.000005,2.035893,2000,14.5,4.0
# From MPEC 2022-O08
C/2019 K1 (ATLAS),e,87.0143,73.3078,265.7584,3809,0.0000042,0.99947018,0.0000,02/11.6401/2020,2000,g 10.0,4.0
# From MPC119997
C/2019 K4 (Ye),e,105.2939,180.2326,139.9904,1564,0.0000159,0.99854539,0.0000,06/15.2593/2019,2000,g 12.5,4.0
# From MPEC 2021-P47
C/2019 K5 (Young),e,15.3041,177.2308,175.1526,169.5873,0.0004463,0.98790536,0.0000,06/22.1210/2019,2000,g 13.0,4.0
# From MPEC 2021-P47
C/2019 K6 (PANSTARRS),e,132.3816,42.9968,187.4811,1067,0.0000283,0.99632846,0.0000,05/19.1780/2020,2000,g 11.5,4.0
# From MPEC 2024-GJ3
C/2019 K7 (Smith),h,06/17.4867/2020,103.4963,308.0162,27.3907,1.000751,4.476628,2000,6.0,4.0
# From MPEC 2021-R75
C/2019 K8 (ATLAS),e,93.0725,291.0033,85.3629,1926,0.0000117,0.99834049,0.0000,07/20.9321/2019,2000,g 11.5,4.0
# From MPEC 2023-A50
C/2019 L1 (PANSTARRS),e,9.9739,254.4272,50.0432,9.826836,0.0319951,0.70446887,60.2297,10/03.0/2024,2000,g 13.5,4.0
# From MPC115886
C/2019 L2 (NEOWISE),e,152.1802,12.5665,18.8639,25.13369,0.0078220,0.93537921,15.7213,10/03.0/2024,2000,g 16.0,4.0
# From MPEC 2024-GJ3
P/2019 LD2 (ATLAS),e,11.5993,179.2329,117.3745,5.186674,0.0834393,0.12845290,141.6404,10/03.0/2024,2000,g  8.5,4.0
# From MPEC 2024-P23
C/2019 L3 (ATLAS),h,01/09.9518/2022,48.3445,290.7344,171.6940,1.002784,3.556133,2000,4.5,4.0
# From MPEC 2020-K19
P/2019 LM4 (Palomar),e,36.4183,72.8431,68.2552,5.703299,0.0723627,0.58569014,139.8834,10/03.0/2024,2000,g  9.5,4.0
# From MPC118095
C/2019 LB7 (Kleyna),e,164.2854,3.9490,336.7174,34.93380,0.0047735,0.92855312,9.6288,10/03.0/2024,2000,g 17.0,4.0
# From MPC118095
C/2019 M3 (ATLAS),e,99.6011,155.0036,87.9293,4711,0.0000030,0.99948521,0.0000,12/31.2923/2018,2000,g 12.2,4.0
# From MPEC 2023-JA2
C/2019 M4 (TESS),h,09/10.8358/2019,65.6799,52.6484,260.3619,1.001536,9.190949,2000,5.0,4.0
# From MPEC 2023-C45
C/2019 N1 (ATLAS),e,82.4759,13.5433,193.3600,1054,0.0000288,0.99838377,0.0000,11/30.7265/2020,2000,g  7.5,4.0
# From MPEC 2023-CD8
A/2019 N2,e,89.3343,276.2056,347.1246,1297,0.0000211,0.99850106,0.0000,08/22.5742/2019,2000,g 12.5,2.0
# From MPEC 2022-A21
C/2019 NJ3 (Lemmon),h,10/22.6401/2020,99.3667,142.4882,246.8872,1.001801,4.363120,2000,9.0,4.0
# From MPEC 2024-R10
C/2019 O2 (PANSTARRS),e,93.3102,48.2589,129.5946,58.53890,0.0022006,0.83460726,1.2007,10/03.0/2024,2000,g  5.0,4.0
# From MPEC 2024-PC5
C/2019 O3 (Palomar),h,03/09.2323/2021,89.8048,300.4620,60.1229,1.003697,8.821284,2000,3.5,4.0
# From MPEC 2021-P47
A/2019 O4,e,115.0447,354.9287,61.8546,33.26497,0.0051372,0.89043364,8.7121,10/03.0/2024,2000,g 15.5,2.0
# From MPEC 2024-EF7
C/2019 Q1 (Lemmon),h,07/21.7076/2020,155.7293,42.4590,56.2546,1.002020,5.004888,2000,8.5,4.0
# From MPC117072
A/2019 Q2,e,158.9994,188.0722,176.4816,58.59023,0.0021977,0.97844077,0.0000,07/22.9456/2019,2000,g 18.0,2.0
# From MPC117072
P/2019 S2 (PANSTARRS),e,10.4640,93.1823,217.0327,4.746096,0.0953234,0.20483502,195.7394,10/03.0/2024,2000,g 13.5,4.0
# From MPEC 2022-CN4
P/2019 S3 (PANSTARRS),e,8.6935,150.1517,213.0821,3.414975,0.1561791,0.47089638,290.9511,10/03.0/2024,2000,g 18.3,4.0
# From MPEC 2021-S45
C/2019 S4 (Lemmon),e,92.1082,63.1584,71.3731,243.9128,0.0002587,0.98589329,0.0000,04/08.8133/2020,2000,g 11.0,4.0
# From MPEC 2023-N01
A/2019 T1,e,120.8476,6.9401,91.0248,38.82725,0.0040738,0.88983512,5.5280,10/03.0/2024,2000,g 13.0,2.0
# From MPEC 2023-R20
C/2019 T2 (Lemmon),e,111.4129,155.6565,239.4111,4586,0.0000032,0.99942334,0.0000,04/22.6692/2021,2000,g  9.0,4.0
# From MPEC 2023-UR6
C/2019 T3 (ATLAS),e,121.8551,139.5359,112.4734,3609,0.0000045,0.99835047,0.0000,03/04.4163/2021,2000,g  6.8,4.0
# From MPEC 2024-RQ6
C/2019 T4 (ATLAS),e,53.6271,199.9247,351.1173,880.5289,0.0000377,0.99518564,0.0000,06/08.6601/2022,2000,g  5.0,4.0
# From MPEC 2021-P47
P/2019 T5 (ATLAS),e,33.4993,247.6110,189.5992,8.003844,0.0435267,0.80983488,82.1791,10/03.0/2024,2000,g 15.0,4.0
# From MPEC 2021-P47
P/2019 T6 (PANSTARRS),e,18.7003,71.2435,329.0373,5.441102,0.0776558,0.62284254,138.9972,10/03.0/2024,2000,g 15.5,4.0
# From MPC118096
P/2019 U4 (PANSTARRS),e,11.6968,200.0136,181.0608,3.519427,0.1492781,0.47589083,274.5493,10/03.0/2024,2000,g 19.0,4.0
# From MPEC 2024-RQ6
C/2019 U5 (PANSTARRS),h,03/29.6232/2023,113.5130,2.6265,181.4609,1.000632,3.623860,2000,4.5,4.0
# From MPEC 2022-H04
C/2019 U6 (Lemmon),e,60.9673,235.7860,329.4670,311.7685,0.0001790,0.99708325,0.0000,06/18.2516/2020,2000,g 10.0,4.0
# From MPEC 2022-N37
C/2019 V1 (Borisov),e,61.9452,83.1487,51.1767,2045,0.0000107,0.99848736,0.0000,07/17.0651/2020,2000,g 11.0,4.0
# From MPEC 2022-L66
P/2019 V2 (Groeller),e,11.8070,189.1626,335.6282,7.494965,0.0480341,0.33152898,69.5172,10/03.0/2024,2000,g 10.0,4.0
# From MPEC 2023-A50
P/2019 W1 (PANSTARRS),e,23.4719,35.3727,18.8337,4.548645,0.1015970,0.26730404,200.3337,10/03.0/2024,2000,g 12.9,4.0
# From MPEC 2021-P47
P/2019 X1 (Pruyne),e,10.2490,43.6798,36.9043,6.177201,0.0641973,0.30397076,121.8506,10/03.0/2024,2000,g 10.4,4.0
# From MPEC 2020-C98
P/2019 X2 (Pan-STARRS),e,15.8953,250.8400,213.4721,3.635215,0.1422031,0.50030562,250.0320,10/03.0/2024,2000,g 18.0,4.0
# From MPC119999
C/2019 Y1 (ATLAS),e,73.3466,31.5214,57.9066,87.68565,0.0012004,0.99056794,0.0000,03/16.7969/2020,2000,g 13.7,4.0
# From MPEC 2020-K19
P/2019 Y2 (Fuls),e,4.8766,80.2421,93.3438,3.488418,0.1512729,0.37646831,259.9974,10/03.0/2024,2000,g  9.0,4.0
# From MPEC 2020-C98
P/2019 Y3 (Catalina),e,24.5976,139.2922,2.5684,3.015464,0.1882230,0.69115716,331.5454,10/03.0/2024,2000,g 18.5,4.0
# From MPEC 2024-A43
C/2019 Y4 (ATLAS),e,45.0212,120.7532,177.4313,344.6510,0.0001540,0.99925489,0.0000,05/30.2409/2020,2000,g 11.8,6.0
# From MPEC 2020-L06
C/2019 Y4-A (ATLAS),h,05/30.2821/2020,45.4589,121.1188,177.2645,1.001394,0.254963,2000,11.6,6.0
# From MPEC 2023-J29
C/2019 Y4-B (ATLAS),e,45.1505,120.8607,177.3754,19586,0.0000004,0.99998692,0.0000,05/30.2516/2020,2000,g 12.1,6.0
# From MPEC 2020-L06
C/2019 Y4-C (ATLAS),h,05/30.2343/2020,45.2421,120.8459,177.2975,1.002121,0.256038,2000,12.7,6.0
# From MPEC 2020-L06
C/2019 Y4-D (ATLAS),e,45.2923,121.2116,177.4380,67.84648,0.0017637,0.99623645,0.0000,05/30.3467/2020,2000,g 12.5,6.0
# From MPEC 2023-A50
C/2019 Y5 (PANSTARRS),e,82.7629,51.7521,303.6303,704.4636,0.0000527,0.99300351,0.0000,08/17.1227/2019,2000,g 11.0,4.0
# From MPEC 2023-A50
A/2020 A1,e,149.0324,119.1081,302.4114,25.49670,0.0076556,0.93456975,13.5345,10/03.0/2024,2000,g 18.0,2.0
# From MPEC 2022-YN2
C/2020 A2 (Iwamoto),e,120.5362,286.2182,68.0217,1084,0.0000276,0.99910124,0.0000,01/07.8538/2020,2000,g 13.5,4.0
# From MPEC 2023-A50
C/2020 A3 (ATLAS),e,146.6348,120.8025,268.2743,16544,0.0000005,0.99965219,0.0000,06/27.9141/2019,2000,g  8.0,4.0
# From MPEC 2022-P91
P/2020 A4 (PANSTARRS-Lemmon),e,24.9969,312.3161,144.8368,8.198686,0.0419844,0.65444359,74.5229,10/03.0/2024,2000,g 15.0,4.0
# From MPEC 2020-N08
A/2020 B1,e,18.5315,309.8585,154.8008,51.80745,0.0026431,0.96644586,4.6037,10/03.0/2024,2000,g 21.0,2.0
# From MPEC 2020-HN5
C/2020 B2 (Lemmon),e,55.7525,354.2349,143.5974,67.71010,0.0017690,0.95928388,3.0268,10/03.0/2024,2000,g 10.0,4.0
# From MPEC 2022-N37
C/2020 B3 (Rankin),e,20.7075,185.7969,324.8892,974.2435,0.0000324,0.99658253,0.0000,10/20.1431/2019,2000,g 13.0,4.0
# From MPEC 2023-KD6
P/2020 B4 (Sheppard),e,11.6056,185.9662,341.9874,7.969769,0.0438062,0.19245027,45.9858,10/03.0/2024,2000,g 10.5,4.0
# From MPEC 2024-PC5
C/2020 F2 (ATLAS),h,07/13.3362/2022,163.5896,250.3043,48.2683,1.003872,8.814285,2000,4.5,4.0
# From MPEC 2021-O56
C/2020 F3 (NEOWISE),e,129.1539,61.0973,37.3848,389.3782,0.0001283,0.99924356,0.0000,07/04.4469/2020,2000,g  7.5,5.2
# From MPEC 2024-BE0
C/2020 F5 (MASTER),e,52.2175,350.5157,310.6604,167.6008,0.0004542,0.97418325,0.0000,03/16.6671/2021,2000,g  6.5,3.2
# From MPEC 2020-L06
C/2020 F6 (PANSTARRS),e,174.5834,207.8757,344.4096,362.4638,0.0001428,0.99034553,0.0000,04/11.0893/2020,2000,g 14.5,2.8
# From MPEC 2024-A43
C/2020 F7 (Lemmon),e,93.9671,321.8389,227.9584,554.7448,0.0000754,0.99038598,0.0000,11/13.6489/2021,2000,g  7.0,4.0
# From MPEC 2023-J29
C/2020 F8 (SWAN),h,05/26.4655/2020,110.5573,259.8035,68.0796,1.000105,0.431000,2000,10.0,4.0
# From MPEC 2020-L06
P/2020 G1 (Pimentel),e,18.5116,240.1107,207.6246,3.607315,0.1438560,0.86075615,238.7030,10/03.0/2024,2000,g 17.0,4.0
# From MPEC 2022-YB4
C/2020 H2 (Pruyne),e,124.8059,277.6714,26.6087,181.8978,0.0004018,0.99544236,0.0000,04/27.4595/2020,2000,g 14.0,3.2
# From MPEC 2020-HM1
C/2020 H3 (Wierzchos),p,06/05.7162/2020,62.5292,30.4456,2.300288,270.6227,2000,13.5,4.0
# From MPEC 2020-L06
C/2020 H4 (Leonard),e,84.4951,307.5292,117.5366,47.81904,0.0029806,0.98064769,0.0000,08/29.4937/2020,2000,g 15.0,3.2
# From MPEC 2024-P23
C/2020 H5 (Robinson),e,70.2460,210.6239,326.2795,4977,0.0000028,0.99812406,0.0000,12/10.0085/2020,2000,g  5.0,4.0
# From MPEC 2024-JU4
C/2020 H6 (ATLAS),e,79.9803,213.7113,20.2279,2544,0.0000077,0.99815293,0.0000,09/29.9458/2021,2000,g  8.0,3.2
# From MPEC 2020-KB7
C/2020 H7 (Lemmon),e,135.9235,323.5194,82.6780,1405,0.0000187,0.99685380,0.0000,06/02.9510/2020,2000,g 11.0,4.0
# From MPEC 2021-N06
C/2020 H8 (PANSTARRS),e,99.7067,68.4442,128.8719,597.6465,0.0000675,0.99218855,0.0000,06/04.6532/2020,2000,g 10.5,4.0
# From MPEC 2022-ED3
A/2020 H9,e,137.8769,213.1620,312.7071,354.4669,0.0001477,0.99276179,0.0000,12/21.9253/2019,2000,g 18.0,2.0
# From MPEC 2023-HN7
C/2020 H11 (PANSTARRS-Lemmon),h,09/13.6131/2020,151.3821,303.0528,91.3996,1.000834,7.622331,2000,8.5,4.0
# From MPEC 2023-KD6
C/2020 J1 (SONEAR),h,04/18.3902/2021,142.3059,226.6055,341.6465,1.000153,3.347772,2000,8.5,3.2
# From MPEC 2024-Q20
C/2020 K1 (PANSTARRS),e,89.6722,94.3650,213.9777,4476,0.0000033,0.99931340,0.0000,05/08.9850/2023,2000,g  5.5,4.0
# From MPEC 2021-N06
C/2020 K2 (PANSTARRS),h,08/05.4470/2020,90.9980,288.4241,67.3331,1.002088,8.880482,2000,10.8,4.0
# From MPEC 2020-KF9
C/2020 K3 (Leonard),p,06/01.0032/2020,129.0152,64.4924,1.583069,28.3546,2000,14.5,4.0
# From MPEC 2020-L06
